CCSDS_OMM_VERS = 2.0
CREATION_DATE  = 
ORIGINATOR     = 

OBJECT_NAME    = HULIANWANG DIGUI 13A
OBJECT_ID      = 2025-258A
CENTER_NAME    = EARTH
REF_FRAME      = TEME
TIME_SYSTEM    = UTC
MEAN_ELEMENT_THEORY = SGP/SGP4

EPOCH          = 2025-12-08T08:38:10.619232
MEAN_MOTION    = 14.20432847
ECCENTRICITY   = .00076585
INCLINATION    = 50.0042
RA_OF_ASC_NODE = 280.4566
ARG_OF_PERICENTER = 343.0746
MEAN_ANOMALY   = 16.9909

EPHEMERIS_TYPE = 0
CLASSIFICATION_TYPE = U
NORAD_CAT_ID   = 66412
ELEMENT_SET_NO = 999
REV_AT_EPOCH   = 403
BSTAR          = .33138446E-3
MEAN_MOTION_DOT = .557E-5
MEAN_MOTION_DDOT = 0

CCSDS_OMM_VERS = 2.0
CREATION_DATE  = 
ORIGINATOR     = 

OBJECT_NAME    = HULIANWANG DIGUI 13B
OBJECT_ID      = 2025-258B
CENTER_NAME    = EARTH
REF_FRAME      = TEME
TIME_SYSTEM    = UTC
MEAN_ELEMENT_THEORY = SGP/SGP4

EPOCH          = 2025-12-08T20:40:52.882752
MEAN_MOTION    = 14.19495379
ECCENTRICITY   = .00049258
INCLINATION    = 49.9968
RA_OF_ASC_NODE = 278.4258
ARG_OF_PERICENTER = 347.5577
MEAN_ANOMALY   = 12.5212

EPHEMERIS_TYPE = 0
CLASSIFICATION_TYPE = U
NORAD_CAT_ID   = 66413
ELEMENT_SET_NO = 999
REV_AT_EPOCH   = 410
BSTAR          = .48755309E-3
MEAN_MOTION_DOT = .876E-5
MEAN_MOTION_DDOT = 0

CCSDS_OMM_VERS = 2.0
CREATION_DATE  = 
ORIGINATOR     = 

OBJECT_NAME    = HULIANWANG DIGUI 13C
OBJECT_ID      = 2025-258C
CENTER_NAME    = EARTH
REF_FRAME      = TEME
TIME_SYSTEM    = UTC
MEAN_ELEMENT_THEORY = SGP/SGP4

EPOCH          = 2025-12-09T03:21:13.066848
MEAN_MOTION    = 14.19246085
ECCENTRICITY   = .00047063
INCLINATION    = 50.0081
RA_OF_ASC_NODE = 277.2503
ARG_OF_PERICENTER = 342.5024
MEAN_ANOMALY   = 17.5724

EPHEMERIS_TYPE = 0
CLASSIFICATION_TYPE = U
NORAD_CAT_ID   = 66414
ELEMENT_SET_NO = 999
REV_AT_EPOCH   = 414
BSTAR          = .41183983E-3
MEAN_MOTION_DOT = .711E-5
MEAN_MOTION_DDOT = 0

CCSDS_OMM_VERS = 2.0
CREATION_DATE  = 
ORIGINATOR     = 

OBJECT_NAME    = HULIANWANG DIGUI 13D
OBJECT_ID      = 2025-258D
CENTER_NAME    = EARTH
REF_FRAME      = TEME
TIME_SYSTEM    = UTC
MEAN_ELEMENT_THEORY = SGP/SGP4

EPOCH          = 2025-12-08T18:43:14.477088
MEAN_MOTION    = 14.20669566
ECCENTRICITY   = .00073015
INCLINATION    = 50.0039
RA_OF_ASC_NODE = 278.6799
ARG_OF_PERICENTER = 351.1938
MEAN_ANOMALY   = 8.8844

EPHEMERIS_TYPE = 0
CLASSIFICATION_TYPE = U
NORAD_CAT_ID   = 66415
ELEMENT_SET_NO = 999
REV_AT_EPOCH   = 409
BSTAR          = .31109029E-3
MEAN_MOTION_DOT = .516E-5
MEAN_MOTION_DDOT = 0

CCSDS_OMM_VERS = 2.0
CREATION_DATE  = 
ORIGINATOR     = 

OBJECT_NAME    = HULIANWANG DIGUI 13E
OBJECT_ID      = 2025-258E
CENTER_NAME    = EARTH
REF_FRAME      = TEME
TIME_SYSTEM    = UTC
MEAN_ELEMENT_THEORY = SGP/SGP4

EPOCH          = 2025-12-08T20:32:41.838720
MEAN_MOTION    = 14.19737012
ECCENTRICITY   = .00054325
INCLINATION    = 50.0065
RA_OF_ASC_NODE = 278.4193
ARG_OF_PERICENTER = 353.4979
MEAN_ANOMALY   = 6.5861

EPHEMERIS_TYPE = 0
CLASSIFICATION_TYPE = U
NORAD_CAT_ID   = 66416
ELEMENT_SET_NO = 999
REV_AT_EPOCH   = 410
BSTAR          = .52022301E-3
MEAN_MOTION_DOT = .95E-5
MEAN_MOTION_DDOT = 0

CCSDS_OMM_VERS = 2.0
CREATION_DATE  = 
ORIGINATOR     = 

OBJECT_NAME    = HULIANWANG DIGUI 13F
OBJECT_ID      = 2025-258F
CENTER_NAME    = EARTH
REF_FRAME      = TEME
TIME_SYSTEM    = UTC
MEAN_ELEMENT_THEORY = SGP/SGP4

EPOCH          = 2025-12-08T20:30:02.663136
MEAN_MOTION    = 14.19898124
ECCENTRICITY   = .00049712
INCLINATION    = 50.0014
RA_OF_ASC_NODE = 278.3846
ARG_OF_PERICENTER = 352.5523
MEAN_ANOMALY   = 7.5313

EPHEMERIS_TYPE = 0
CLASSIFICATION_TYPE = U
NORAD_CAT_ID   = 66417
ELEMENT_SET_NO = 999
REV_AT_EPOCH   = 410
BSTAR          = .4539907E-3
MEAN_MOTION_DOT = .812E-5
MEAN_MOTION_DDOT = 0

CCSDS_OMM_VERS = 2.0
CREATION_DATE  = 
ORIGINATOR     = 

OBJECT_NAME    = HULIANWANG DIGUI 13G
OBJECT_ID      = 2025-258G
CENTER_NAME    = EARTH
REF_FRAME      = TEME
TIME_SYSTEM    = UTC
MEAN_ELEMENT_THEORY = SGP/SGP4

EPOCH          = 2025-12-08T20:22:07.229856
MEAN_MOTION    = 14.20510798
ECCENTRICITY   = .00055793
INCLINATION    = 50.0031
RA_OF_ASC_NODE = 278.3586
ARG_OF_PERICENTER = 346.1381
MEAN_ANOMALY   = 13.9377

EPHEMERIS_TYPE = 0
CLASSIFICATION_TYPE = U
NORAD_CAT_ID   = 66418
ELEMENT_SET_NO = 999
REV_AT_EPOCH   = 410
BSTAR          = .39264944E-3
MEAN_MOTION_DOT = .691E-5
MEAN_MOTION_DDOT = 0

CCSDS_OMM_VERS = 2.0
CREATION_DATE  = 
ORIGINATOR     = 

OBJECT_NAME    = HULIANWANG DIGUI 13H
OBJECT_ID      = 2025-258H
CENTER_NAME    = EARTH
REF_FRAME      = TEME
TIME_SYSTEM    = UTC
MEAN_ELEMENT_THEORY = SGP/SGP4

EPOCH          = 2025-12-08T14:58:00.814656
MEAN_MOTION    = 15.39596954
ECCENTRICITY   = .00012505
INCLINATION    = 53.1596
RA_OF_ASC_NODE = 125.9585
ARG_OF_PERICENTER = 98.9072
MEAN_ANOMALY   = 261.2074

EPHEMERIS_TYPE = 0
CLASSIFICATION_TYPE = U
NORAD_CAT_ID   = 66419
ELEMENT_SET_NO = 999
REV_AT_EPOCH   = 804
BSTAR          = .24249346E-2
MEAN_MOTION_DOT = .97774E-3
MEAN_MOTION_DDOT = 0

CCSDS_OMM_VERS = 2.0
CREATION_DATE  = 
ORIGINATOR     = 

OBJECT_NAME    = HULIANWANG DIGUI 13J
OBJECT_ID      = 2025-258J
CENTER_NAME    = EARTH
REF_FRAME      = TEME
TIME_SYSTEM    = UTC
MEAN_ELEMENT_THEORY = SGP/SGP4

EPOCH          = 2025-12-08T20:17:06.442944
MEAN_MOTION    = 14.20810839
ECCENTRICITY   = .00037732
INCLINATION    = 50.0024
RA_OF_ASC_NODE = 278.3460
ARG_OF_PERICENTER = 347.1433
MEAN_ANOMALY   = 12.9382

EPHEMERIS_TYPE = 0
CLASSIFICATION_TYPE = U
NORAD_CAT_ID   = 66420
ELEMENT_SET_NO = 999
REV_AT_EPOCH   = 409
BSTAR          = .37258505E-3
MEAN_MOTION_DOT = .652E-5
MEAN_MOTION_DDOT = 0

CCSDS_OMM_VERS = 2.0
CREATION_DATE  = 
ORIGINATOR     = 

OBJECT_NAME    = CZ-12 R/B
OBJECT_ID      = 2025-258K
CENTER_NAME    = EARTH
REF_FRAME      = TEME
TIME_SYSTEM    = UTC
MEAN_ELEMENT_THEORY = SGP/SGP4

EPOCH          = 2025-12-09T12:47:21.717600
MEAN_MOTION    = 14.42322755
ECCENTRICITY   = .00645356
INCLINATION    = 49.9958
RA_OF_ASC_NODE = 271.8629
ARG_OF_PERICENTER = 237.8784
MEAN_ANOMALY   = 121.5862

EPHEMERIS_TYPE = 0
CLASSIFICATION_TYPE = U
NORAD_CAT_ID   = 66421
ELEMENT_SET_NO = 999
REV_AT_EPOCH   = 426
BSTAR          = .15068133E-3
MEAN_MOTION_DOT = .343E-5
MEAN_MOTION_DDOT = 0

CCSDS_OMM_VERS = 2.0
CREATION_DATE  = 
ORIGINATOR     = 

OBJECT_NAME    = STARLINK-35617
OBJECT_ID      = 2025-259A
CENTER_NAME    = EARTH
REF_FRAME      = TEME
TIME_SYSTEM    = UTC
MEAN_ELEMENT_THEORY = SGP/SGP4

EPOCH          = 2025-12-09T12:12:10.263168
MEAN_MOTION    = 15.40777762
ECCENTRICITY   = .00010396
INCLINATION    = 43.0035
RA_OF_ASC_NODE = 66.7321
ARG_OF_PERICENTER = 134.0359
MEAN_ANOMALY   = 226.0583

EPHEMERIS_TYPE = 0
CLASSIFICATION_TYPE = U
NORAD_CAT_ID   = 66422
ELEMENT_SET_NO = 999
REV_AT_EPOCH   = 566
BSTAR          = .20546289E-2
MEAN_MOTION_DOT = .86728E-3
MEAN_MOTION_DDOT = 0

CCSDS_OMM_VERS = 2.0
CREATION_DATE  = 
ORIGINATOR     = 

OBJECT_NAME    = STARLINK-35618
OBJECT_ID      = 2025-259B
CENTER_NAME    = EARTH
REF_FRAME      = TEME
TIME_SYSTEM    = UTC
MEAN_ELEMENT_THEORY = SGP/SGP4

EPOCH          = 2025-12-09T13:42:17.557056
MEAN_MOTION    = 15.40793706
ECCENTRICITY   = .000261
INCLINATION    = 43.0016
RA_OF_ASC_NODE = 66.3405
ARG_OF_PERICENTER = 255.9830
MEAN_ANOMALY   = 104.0736

EPHEMERIS_TYPE = 0
CLASSIFICATION_TYPE = U
NORAD_CAT_ID   = 66423
ELEMENT_SET_NO = 999
REV_AT_EPOCH   = 567
BSTAR          = .23853E-2
MEAN_MOTION_DOT = .100982E-2
MEAN_MOTION_DDOT = 0

