HULIANWANG DIGUI 13A    
1 66412U 25258A   25342.35984513  .00000557  00000+0  33138-3 0  9992
2 66412  50.0042 280.4566 0007658 343.0746  16.9909 14.20432847  4032
HULIANWANG DIGUI 13B    
1 66413U 25258B   25342.86172318  .00000876  00000+0  48755-3 0  9996
2 66413  49.9968 278.4258 0004925 347.5577  12.5212 14.19495379  4101
HULIANWANG DIGUI 13C    
1 66414U 25258C   25343.13973457  .00000711  00000+0  41184-3 0  9998
2 66414  50.0081 277.2503 0004706 342.5024  17.5724 14.19246085  4145
HULIANWANG DIGUI 13D    
1 66415U 25258D   25342.78002867  .00000516  00000+0  31109-3 0  9996
2 66415  50.0039 278.6799 0007301 351.1938   8.8844 14.20669566  4090
HULIANWANG DIGUI 13E    
1 66416U 25258E   25342.85603980  .00000950  00000+0  52022-3 0  9997
2 66416  50.0065 278.4193 0005432 353.4979   6.5861 14.19737012  4105
HULIANWANG DIGUI 13F    
1 66417U 25258F   25342.85419749  .00000812  00000+0  45399-3 0  9992
2 66417  50.0014 278.3846 0004971 352.5523   7.5313 14.19898124  4101
HULIANWANG DIGUI 13G    
1 66418U 25258G   25342.84869479  .00000691  00000+0  39265-3 0  9991
2 66418  50.0031 278.3586 0005579 346.1381  13.9377 14.20510798  4109
HULIANWANG DIGUI 13H    
1 66419U 25258H   25342.62362054  .00097774  00000+0  24249-2 0  9998
2 66419  53.1596 125.9585 0001250  98.9072 261.2074 15.39596954  8045
HULIANWANG DIGUI 13J    
1 66420U 25258J   25342.84521346  .00000652  00000+0  37259-3 0  9990
2 66420  50.0024 278.3460 0003773 347.1433  12.9382 14.20810839  4090
CZ-12 R/B               
1 66421U 25258K   25343.53289025  .00000343  00000+0  15068-3 0  9994
2 66421  49.9958 271.8629 0064535 237.8784 121.5862 14.42322755  4264
STARLINK-35617          
1 66422U 25259A   25343.50845212  .00086728  00000+0  20546-2 0  9996
2 66422  43.0035  66.7321 0001039 134.0359 226.0583 15.40777762  5669
STARLINK-35618          
1 66423U 25259B   25343.57103654  .00100982  00000+0  23853-2 0  9994
2 66423  43.0016  66.3405 0002610 255.9830 104.0736 15.40793706  5673
